{
    "links": {
        "self": "http://www.neowsapp.com/rest/v1/neo/3830506?api_key=iIulBulltgU6a56xZRHN4H3l9WmuAYTsLGpBGhQ2"
    },
    "id": "3830506",
    "neo_reference_id": "3830506",
    "name": "(2018 SK)",
    "designation": "2018 SK",
    "nasa_jpl_url": "http://ssd.jpl.nasa.gov/sbdb.cgi?sstr=3830506",
    "absolute_magnitude_h": 25.8,
    "estimated_diameter": {
        "kilometers": {
            "estimated_diameter_min": 0.0183888672,
            "estimated_diameter_max": 0.0411187571
        },
        "meters": {
            "estimated_diameter_min": 18.388867207,
            "estimated_diameter_max": 41.1187571041
        },
        "miles": {
            "estimated_diameter_min": 0.0114263088,
            "estimated_diameter_max": 0.0255500032
        },
        "feet": {
            "estimated_diameter_min": 60.3309310875,
            "estimated_diameter_max": 134.9040630575
        }
    },
    "is_potentially_hazardous_asteroid": false,
    "close_approach_data": [
        {
            "close_approach_date": "2018-09-25",
            "close_approach_date_full": "2018-Sep-25 00:29",
            "epoch_date_close_approach": 1537835340000,
            "relative_velocity": {
                "kilometers_per_second": "7.7202294232",
                "kilometers_per_hour": "27792.825923607",
                "miles_per_hour": "17269.3811968102"
            },
            "miss_distance": {
                "astronomical": "0.0335780697",
                "lunar": "13.0618691133",
                "kilometers": "5023207.705831539",
                "miles": "3121276.5328876782"
            },
            "orbiting_body": "Earth"
        }
    ],
    "orbital_data": {
        "orbit_id": "3",
        "orbit_determination_date": "2018-09-29 08:09:06",
        "first_observation_date": "2018-09-16",
        "last_observation_date": "2018-09-29",
        "data_arc_in_days": 13,
        "observations_used": 22,
        "orbit_uncertainty": "8",
        "minimum_orbit_intersection": ".0236142",
        "jupiter_tisserand_invariant": "4.693",
        "epoch_osculation": "2458379.5",
        "eccentricity": ".3211300513431387",
        "semi_major_axis": "1.396662561907461",
        "inclination": "9.740520062325556",
        "ascending_node_longitude": "353.1119294761393",
        "orbital_period": "602.8866465067924",
        "perihelion_distance": ".9481522416930784",
        "perihelion_argument": "50.51081623565473",
        "aphelion_distance": "1.845172882121844",
        "perihelion_time": "2458423.358869308913",
        "mean_anomaly": "333.8106772762452",
        "mean_motion": ".5971271748775481",
        "equinox": "J2000",
        "orbit_class": {
            "orbit_class_type": "APO",
            "orbit_class_description": "Near-Earth asteroid orbits which cross the Earth’s orbit similar to that of 1862 Apollo",
            "orbit_class_range": "a (semi-major axis) > 1.0 AU; q (perihelion) < 1.017 AU"
        }
    },
    "is_sentry_object": false
}